[{"OBJECT_NAME":"STARLINK-4175","OBJECT_ID":"2022-086AT","EPOCH":"2026-03-09T14:29:30.783264","MEAN_MOTION":15.08837362,"ECCENTRICITY":0.0001378,"INCLINATION":53.2177,"RA_OF_ASC_NODE":184.5079,"ARG_OF_PERICENTER":94.9774,"MEAN_ANOMALY":265.1375,"EPHEMERIS_TYPE":0,"CLASSIFICATION_TYPE":"U","NORAD_CAT_ID":53283,"ELEMENT_SET_NO":999,"REV_AT_EPOCH":20118,"BSTAR":-1.0064e-5,"MEAN_MOTION_DOT":-4.48e-6,"MEAN_MOTION_DDOT":0},{"OBJECT_NAME":"OBJECT D","OBJECT_ID":"2018-099D","EPOCH":"2026-03-09T21:55:11.400096","MEAN_MOTION":15.0608919,"ECCENTRICITY":0.00104801,"INCLINATION":97.4323,"RA_OF_ASC_NODE":113.3477,"ARG_OF_PERICENTER":333.2621,"MEAN_ANOMALY":26.8065,"EPHEMERIS_TYPE":0,"CLASSIFICATION_TYPE":"U","NORAD_CAT_ID":43761,"ELEMENT_SET_NO":999,"REV_AT_EPOCH":39716,"BSTAR":0.0002280609,"MEAN_MOTION_DOT":3.276e-5,"MEAN_MOTION_DDOT":0}]
